ONEWEB-0387             
1 49313U 21090AL  26009.05012844 -.00000046  00000+0 -14468-3 0  9990
2 49313  87.9222 306.2106 0001879  86.1893 273.9455 13.20772158208810
ONEWEB-0388             
1 49314U 21090AM  26009.19258475  .00000022  00000+0  23138-4 0  9995
2 49314  87.9219 336.6109 0001904  81.1480 278.9868 13.19725788205447
ONEWEB-0389             
1 50469U 21132A   26009.11244464  .00000040  00000+0  69855-4 0  9996
2 50469  87.9090  37.4917 0002140  98.7052 261.4322 13.17648113197134
ONEWEB-0390             
1 50470U 21132B   26009.03818874  .00000037  00000+0  62418-4 0  9995
2 50470  87.9086  37.5076 0001644 102.0647 258.0669 13.17647384197129
ONEWEB-0391             
1 50471U 21132C   26009.11582535  .00000009  00000+0 -10464-4 0  9991
2 50471  87.9085  37.5016 0002411 111.8080 248.3308 13.17649807197130
ONEWEB-0392             
1 50472U 21132D   26009.07025373  .00000037  00000+0  61357-4 0  9996
2 50472  87.9096  37.4654 0002100 100.5141 259.6227 13.17648289197169
ONEWEB-0393             
1 50473U 21132E   26009.11932500  .00000026  00000+0  32995-4 0  9995
2 50473  87.9096  37.4783 0001949  97.5520 262.5832 13.17647673197160
ONEWEB-0394             
1 50474U 21132F   26008.45368065  .00000013  00000+0 -61988-6 0  9994
2 50474  87.9180   7.1547 0001949  89.3137 270.8218 13.18684914200547
